NORAD_CAT_ID,OBJECT_NAME,OBJECT_TYPE,EPOCH,MEAN_MOTION,ECCENTRICITY,INCLINATION,RA_OF_ASC_NODE,ARG_OF_PERICENTER,MEAN_ANOMALY,BSTAR,MEAN_MOTION_DOT,MEAN_MOTION_DDOT,TLE_LINE0,TLE_LINE1,TLE_LINE2,SEMIMAJOR_AXIS,PERIOD,APOGEE,PERIGEE,DECAYED
55311.0,STARLINK-5312,PAYLOAD,2023-06-04 02:01:43,15.69930335,0.0003446,69.9984,47.7976,256.3895,103.6917,7.4567e-06,6.84e-06,0.0,0 STARLINK-5312,1 55311U 23010AU  23155.08452830  .00000684  00000-0  74567-5 0  9999,2 55311  69.9984  47.7976 0003446 256.3895 103.6917 15.69930335 21786,6737.233,91.724,361.42,356.777,0.0
55311.0,STARLINK-5312,PAYLOAD,2023-06-04 11:12:14,15.69922345,0.0003414,69.9983,46.7228,255.5517,104.53,1.4571e-05,1.539e-05,0.0,0 STARLINK-5312,1 55311U 23010AU  23155.46683224  .00001539  00000-0  14571-4 0  9992,2 55311  69.9983  46.7228 0003414 255.5517 104.5300 15.69922345 23039,6737.256,91.724,361.421,356.821,0.0
55311.0,STARLINK-5312,PAYLOAD,2023-06-04 18:50:59,15.69927335,0.0003531,69.9983,45.8265,260.1599,99.9198,9.3645e-06,9.13e-06,0.0,0 STARLINK-5312,1 55311U 23010AU  23155.78541445  .00000913  00000-0  93645-5 0  9990,2 55311  69.9983  45.8265 0003531 260.1599  99.9198 15.69927335 21890,6737.242,91.724,361.486,356.728,0.0
55311.0,STARLINK-5312,PAYLOAD,2023-06-05 02:29:47,15.69901818,0.0003609,69.9981,44.9314,266.1808,93.8975,-1.9851e-05,-2.597e-05,0.0,0 STARLINK-5312,1 55311U 23010AU  23156.10401654 -.00002597  00000-0 -19851-4 0  9992,2 55311  69.9981  44.9314 0003609 266.1808  93.8975 15.69901818 21948,6737.315,91.725,361.611,356.748,0.0
55311.0,STARLINK-5312,PAYLOAD,2023-06-05 17:47:17,15.69917313,0.000337,69.9982,43.1387,264.5346,95.5465,-2.8377e-06,-5.54e-06,0.0,0 STARLINK-5312,1 55311U 23010AU  23156.74117461 -.00000554  00000-0 -28377-5 0  9997,2 55311  69.9982  43.1387 0003370 264.5346  95.5465 15.69917313 22046,6737.271,91.725,361.406,356.865,0.0
55311.0,STARLINK-5312,PAYLOAD,2023-06-05 19:19:01,15.69928926,0.0003074,69.9989,42.9589,248.9172,111.1695,8.5183e-06,8.12e-06,0.0,0 STARLINK-5312,1 55311U 23010AU  23156.80488153  .00000812  00000-0  85183-5 0  9996,2 55311  69.9989  42.9589 0003074 248.9172 111.1695 15.69928926 23243,6737.237,91.724,361.173,357.031,0.0
55311.0,STARLINK-5312,PAYLOAD,2023-06-05 23:54:16,15.69933162,0.0003381,69.9987,42.4222,262.4048,97.6764,1.2988e-05,1.35e-05,0.0,0 STARLINK-5312,1 55311U 23010AU  23156.99602829  .00001350  00000-0  12988-4 0  9994,2 55311  69.9987  42.4222 0003381 262.4048  97.6764 15.69933162 22088,6737.225,91.724,361.368,356.812,0.0
55311.0,STARLINK-5312,PAYLOAD,2023-06-06 02:57:47,15.69933925,0.0003562,69.9984,42.0646,272.7365,87.3423,1.3261e-05,1.383e-05,0.0,0 STARLINK-5312,1 55311U 23010AU  23157.12346122  .00001383  00000-0  13261-4 0  9992,2 55311  69.9984  42.0646 0003562 272.7365  87.3423 15.69933925 23297,6737.223,91.724,361.488,356.688,0.0
55311.0,STARLINK-5312,PAYLOAD,2023-06-06 19:47:03,15.69924536,0.0003599,69.9985,40.0934,264.5131,95.5655,7.1006e-06,6.41e-06,0.0,0 STARLINK-5312,1 55311U 23010AU  23157.82435115  .00000641  00000-0  71006-5 0  9998,2 55311  69.9985  40.0934 0003599 264.5131  95.5655 15.69924536 23405,6737.25,91.724,361.54,356.69,0.0
55311.0,STARLINK-5312,PAYLOAD,2023-06-07 03:25:48,15.69950041,0.0003981,69.9982,39.1996,263.3984,96.6758,-2.731e-05,-3.5e-05,0.0,0 STARLINK-5312,1 55311U 23010AU  23158.14292189 -.00003500  00000-0 -27310-4 0  9993,2 55311  69.9982  39.1996 0003981 263.3984  96.6758 15.69950041 22266,6737.177,91.723,361.724,356.36,0.0
55311.0,STARLINK-5312,PAYLOAD,2023-06-07 18:43:20,15.69926309,0.000388,69.9974,37.405,272.2181,87.8571,1.1208e-06,-7.8e-07,0.0,0 STARLINK-5312,1 55311U 23010AU  23158.78010400 -.00000078  00000-0  11208-5 0  9993,2 55311  69.9974  37.4050 0003880 272.2181  87.8571 15.69926309 22361,6737.245,91.724,361.724,356.496,0.0
55311.0,STARLINK-5312,PAYLOAD,2023-06-08 00:50:20,15.69934821,0.0003456,69.9992,36.6909,266.2802,93.7999,1.1788e-05,1.205e-05,0.0,0 STARLINK-5312,1 55311U 23010AU  23159.03496380  .00001205  00000-0  11788-4 0  9991,2 55311  69.9992  36.6909 0003456 266.2802  93.7999 15.69934821 22400,6737.22,91.724,361.414,356.757,0.0
55311.0,STARLINK-5312,PAYLOAD,2023-06-09 01:18:23,15.69923638,0.0003695,69.9993,33.8272,258.6888,101.3892,4.9681e-06,3.84e-06,0.0,0 STARLINK-5312,1 55311U 23010AU  23160.05443788  .00000384  00000-0  49681-5 0  9990,2 55311  69.9993  33.8272 0003695 258.6888 101.3892 15.69923638 22566,6737.252,91.724,361.607,356.628,0.0
55311.0,STARLINK-5312,PAYLOAD,2023-06-09 08:57:09,15.69915448,0.0004033,69.997,32.9261,269.3093,90.7641,5.3579e-06,4.31e-06,0.0,0 STARLINK-5312,1 55311U 23010AU  23160.37302637  .00000431  00000-0  53579-5 0  9996,2 55311  69.9970  32.9261 0004033 269.3093  90.7641 15.69915448 22612,6737.276,91.725,361.858,356.424,0.0
55311.0,STARLINK-5312,PAYLOAD,2023-06-09 16:35:54,15.69925039,0.000434,69.9969,32.0329,271.0243,89.0455,4.3965e-06,3.15e-06,0.0,0 STARLINK-5312,1 55311U 23010AU  23160.69160584  .00000315  00000-0  43965-5 0  9993,2 55311  69.9969  32.0329 0004340 271.0243  89.0455 15.69925039 23852,6737.248,91.724,362.037,356.189,0.0
55311.0,STARLINK-5312,PAYLOAD,2023-06-09 18:07:39,15.69929908,0.000409,69.9984,31.8545,268.0783,91.9944,4.4236e-06,3.19e-06,0.0,0 STARLINK-5312,1 55311U 23010AU  23160.75531969  .00000319  00000-0  44236-5 0  9995,2 55311  69.9984  31.8545 0004090 268.0783  91.9944 15.69929908 22676,6737.235,91.724,361.855,356.344,0.0
55311.0,STARLINK-5312,PAYLOAD,2023-06-10 00:14:39,15.6993859,0.0004026,69.9978,31.1368,268.9478,91.1257,1.3712e-05,1.437e-05,0.0,0 STARLINK-5312,1 55311U 23010AU  23161.01017864  .00001437  00000-0  13712-4 0  9994,2 55311  69.9978  31.1368 0004026 268.9478  91.1257 15.69938590 22715,6737.21,91.723,361.787,356.362,0.0
55311.0,STARLINK-5312,PAYLOAD,2023-06-10 21:39:12,15.6992096,0.0003981,69.9986,28.6277,268.4035,91.6704,-7.9434e-06,-1.168e-05,0.0,0 STARLINK-5312,1 55311U 23010AU  23161.90222368 -.00001168  00000-0 -79434-5 0  9996,2 55311  69.9986  28.6277 0003981 268.4035  91.6704 15.69920960 24049,6737.26,91.724,361.807,356.443,0.0
55311.0,STARLINK-5312,PAYLOAD,2023-06-11 09:53:13,15.69916776,0.0003747,69.9979,27.1955,264.9494,95.1274,2.4677e-05,2.754e-05,0.0,0 STARLINK-5312,1 55311U 23010AU  23162.41195989  .00002754  00000-0  24677-4 0  9999,2 55311  69.9979  27.1955 0003747 264.9494  95.1274 15.69916776 24128,6737.272,91.725,361.662,356.613,0.0
55311.0,STARLINK-5312,PAYLOAD,2023-06-11 14:28:28,15.69928623,0.0003715,69.9973,26.6582,265.6635,94.4137,1.1277e-05,1.143e-05,0.0,0 STARLINK-5312,1 55311U 23010AU  23162.60310497  .00001143  00000-0  11277-4 0  9996,2 55311  69.9973  26.6582 0003715 265.6635  94.4137 15.69928623 22966,6737.238,91.724,361.606,356.6,0.0
55311.0,STARLINK-5312,PAYLOAD,2023-06-11 19:03:42,15.69938544,0.0003739,69.9976,26.1204,265.9287,94.1481,1.9619e-05,2.148e-05,0.0,0 STARLINK-5312,1 55311U 23010AU  23162.79424655  .00002148  00000-0  19619-4 0  9992,2 55311  69.9976  26.1204 0003739 265.9287  94.1481 15.69938544 24185,6737.21,91.723,361.594,356.556,0.0
55311.0,STARLINK-5312,PAYLOAD,2023-06-11 23:38:58,15.69932026,0.0003486,69.9981,25.5829,260.9024,99.1777,1.2363e-05,1.274e-05,0.0,0 STARLINK-5312,1 55311U 23010AU  23162.98540116  .00001274  00000-0  12363-4 0  9992,2 55311  69.9981  25.5829 0003486 260.9024  99.1777 15.69932026 23024,6737.228,91.724,361.442,356.745,0.0
55311.0,STARLINK-5312,PAYLOAD,2023-06-12 01:10:45,15.69912786,0.0003055,69.9983,25.4041,263.1342,96.9506,-9.5095e-06,-1.355e-05,0.0,0 STARLINK-5312,1 55311U 23010AU  23163.04913443 -.00001355  00000-0 -95095-5 0  9993,2 55311  69.9983  25.4041 0003055 263.1342  96.9506 15.69912786 24220,6737.284,91.725,361.207,357.09,0.0
55311.0,STARLINK-5312,PAYLOAD,2023-06-12 16:28:15,15.6991908,0.0003627,69.9971,23.6114,265.7338,94.3443,4.7432e-06,3.57e-06,0.0,0 STARLINK-5312,1 55311U 23010AU  23163.68629605  .00000357  00000-0  47432-5 0  9998,2 55311  69.9971  23.6114 0003627 265.7338  94.3443 15.69919080 23131,6737.266,91.724,361.574,356.687,0.0
55311.0,STARLINK-5312,PAYLOAD,2023-06-13 13:52:47,15.69926012,0.0003393,69.9973,21.1049,265.8878,94.193,4.211e-06,2.94e-06,0.0,0 STARLINK-5312,1 55311U 23010AU  23164.57832568  .00000294  00000-0  42110-5 0  9999,2 55311  69.9973  21.1049 0003393 265.8878  94.1930 15.69926012 24462,6737.246,91.724,361.397,356.825,0.0
55311.0,STARLINK-5312,PAYLOAD,2023-06-14 02:06:48,15.69930867,0.0003542,69.9974,19.6696,274.7366,85.3425,-2.1611e-06,-4.73e-06,0.0,0 STARLINK-5312,1 55311U 23010AU  23165.08805743 -.00000473  00000-0 -21611-5 0  9995,2 55311  69.9974  19.6696 0003542 274.7366  85.3425 15.69930867 24543,6737.232,91.724,361.483,356.71,0.0
55311.0,STARLINK-5312,PAYLOAD,2023-06-14 15:52:34,15.69927405,0.0003633,69.9978,18.0584,263.4655,96.6127,-9.3355e-06,-1.336e-05,0.0,0 STARLINK-5312,1 55311U 23010AU  23165.66151318 -.00001336  00000-0 -93355-5 0  9994,2 55311  69.9978  18.0584 0003633 263.4655  96.6127 15.69927405 23449,6737.242,91.724,361.554,356.659,0.0
55311.0,STARLINK-5312,PAYLOAD,2023-06-14 20:27:49,15.69928424,0.0003644,69.9976,17.5214,270.8044,89.2735,1.0148e-05,1.008e-05,0.0,0 STARLINK-5312,1 55311U 23010AU  23165.85265883  .00001008  00000-0  10148-4 0  9990,2 55311  69.9976  17.5214 0003644 270.8044  89.2735 15.69928424 24667,6737.239,91.724,361.559,356.649,0.0
55311.0,STARLINK-5312,PAYLOAD,2023-06-15 13:17:06,15.69928882,0.000421,69.9968,15.5501,273.5258,86.5456,1.5155e-06,-3.1e-07,0.0,0 STARLINK-5312,1 55311U 23010AU  23166.55354411 -.00000031  00000-0  15155-5 0  9994,2 55311  69.9968  15.5501 0004210 273.5258  86.5456 15.69928882 24772,6737.237,91.724,361.939,356.266,0.0
55311.0,STARLINK-5312,PAYLOAD,2023-06-15 16:20:36,15.69927649,0.0003656,69.9976,15.1918,262.651,97.427,4.2749e-06,3.01e-06,0.0,0 STARLINK-5312,1 55311U 23010AU  23166.68097730  .00000301  00000-0  42749-5 0  9994,2 55311  69.9976  15.1918 0003656 262.6510  97.4270 15.69927649 23608,6737.241,91.724,361.569,356.643,0.0
